{
  "type": "FeatureCollection",
  "features": [
    {
      "type": "Feature",
      "properties": {
        "norad_id": 39227,
        "name": "ARIRANG-5 (KOMPSAT-5)",
        "group": "resource",
        "lat": 27.32625483974234,
        "lon": 177.51137666194694,
        "alt_km": 549.4557556368127,
        "timestamp": "2025-12-23T07:45:09.053600+00:00",
        "meta_object_name": "ARIRANG-5 (KOMPSAT-5)",
        "meta_object_id": "2013-042A",
        "meta_epoch": "2025-12-22T23:38:58.354368",
        "meta_mean_motion": 15.0454936,
        "meta_eccentricity": 0.00034572,
        "meta_inclination": 97.6158,
        "meta_ra_of_asc_node": 181.1431,
        "meta_arg_of_pericenter": 33.2669,
        "meta_mean_anomaly": 326.8774,
        "meta_ephemeris_type": 0,
        "meta_classification_type": "U",
        "meta_norad_cat_id": 39227,
        "meta_element_set_no": 999,
        "meta_rev_at_epoch": 67736,
        "meta_bstar": 0.00016158405,
        "meta_mean_motion_dot": 2.204e-05,
        "meta_mean_motion_ddot": 0,
        "tle_line1": "1 39227U 13042A   25356.98539762  .00002204  00000+0  16158-3 0  9994",
        "tle_line2": "2 39227  97.6158 181.1431 0003457  33.2669 326.8774 15.04549360677361"
      },
      "geometry": {
        "type": "Point",
        "coordinates": [
          177.51137666194694,
          27.32625483974234
        ]
      }
    },
    {
      "type": "Feature",
      "properties": {
        "norad_id": 39418,
        "name": "SKYSAT-A",
        "group": "resource",
        "lat": -48.13922740664717,
        "lon": 55.560507742501606,
        "alt_km": 543.701532961587,
        "timestamp": "2025-12-23T07:45:09.053610+00:00",
        "meta_object_name": "SKYSAT-A",
        "meta_object_id": "2013-066C",
        "meta_epoch": "2025-12-22T01:47:01.235904",
        "meta_mean_motion": 15.11668448,
        "meta_eccentricity": 0.00213841,
        "meta_inclination": 97.4091,
        "meta_ra_of_asc_node": 45.9992,
        "meta_arg_of_pericenter": 202.7866,
        "meta_mean_anomaly": 157.2418,
        "meta_ephemeris_type": 0,
        "meta_classification_type": "U",
        "meta_norad_cat_id": 39418,
        "meta_element_set_no": 999,
        "meta_rev_at_epoch": 66171,
        "meta_bstar": 0.00020684815,
        "meta_mean_motion_dot": 3.473e-05,
        "meta_mean_motion_ddot": 0,
        "tle_line1": "1 39418U 13066C   25356.07431986  .00003473  00000+0  20685-3 0  9990",
        "tle_line2": "2 39418  97.4091  45.9992 0021384 202.7866 157.2418 15.11668448661717"
      },
      "geometry": {
        "type": "Point",
        "coordinates": [
          55.560507742501606,
          -48.13922740664717
        ]
      }
    },
    {
      "type": "Feature",
      "properties": {
        "norad_id": 39419,
        "name": "DUBAISAT-2",
        "group": "resource",
        "lat": -29.51166534711057,
        "lon": -8.351336658725906,
        "alt_km": 542.4716140916653,
        "timestamp": "2025-12-23T07:45:09.053620+00:00",
        "meta_object_name": "DUBAISAT-2",
        "meta_object_id": "2013-066D",
        "meta_epoch": "2025-12-22T23:55:26.353056",
        "meta_mean_motion": 15.08450598,
        "meta_eccentricity": 0.00100357,
        "meta_inclination": 97.445,
        "meta_ra_of_asc_node": 347.0876,
        "meta_arg_of_pericenter": 281.1049,
        "meta_mean_anomaly": 78.9051,
        "meta_ephemeris_type": 0,
        "meta_classification_type": "U",
        "meta_norad_cat_id": 39419,
        "meta_element_set_no": 999,
        "meta_rev_at_epoch": 65981,
        "meta_bstar": 0.00045824765,
        "meta_mean_motion_dot": 7.085e-05,
        "meta_mean_motion_ddot": 0,
        "tle_line1": "1 39419U 13066D   25356.99683279  .00007085  00000+0  45825-3 0  9992",
        "tle_line2": "2 39419  97.4450 347.0876 0010035 281.1049  78.9051 15.08450598659810"
      },
      "geometry": {
        "type": "Point",
        "coordinates": [
          -8.351336658725906,
          -29.51166534711057
        ]
      }
    },
    {
      "type": "Feature",
      "properties": {
        "norad_id": 39574,
        "name": "GPM-CORE",
        "group": "resource",
        "lat": 60.86832567363663,
        "lon": -125.79180093903778,
        "alt_km": 431.82515475900345,
        "timestamp": "2025-12-23T07:45:09.053630+00:00",
        "meta_object_name": "GPM-CORE",
        "meta_object_id": "2014-009C",
        "meta_epoch": "2025-12-22T22:06:25.064352",
        "meta_mean_motion": 15.4461381,
        "meta_eccentricity": 0.00092285,
        "meta_inclination": 64.9721,
        "meta_ra_of_asc_node": 178.5861,
        "meta_arg_of_pericenter": 249.4445,
        "meta_mean_anomaly": 110.5706,
        "meta_ephemeris_type": 0,
        "meta_classification_type": "U",
        "meta_norad_cat_id": 39574,
        "meta_element_set_no": 999,
        "meta_rev_at_epoch": 67058,
        "meta_bstar": 0.00019020853,
        "meta_mean_motion_dot": 8.668e-05,
        "meta_mean_motion_ddot": 0,
        "tle_line1": "1 39574U 14009C   25356.92112343  .00008668  00000+0  19021-3 0  9991",
        "tle_line2": "2 39574  64.9721 178.5861 0009228 249.4445 110.5706 15.44613810670587"
      },
      "geometry": {
        "type": "Point",
        "coordinates": [
          -125.79180093903778,
          60.86832567363663
        ]
      }
    },
    {
      "type": "Feature",
      "properties": {
        "norad_id": 39634,
        "name": "SENTINEL-1A",
        "group": "resource",
        "lat": -65.02576506118645,
        "lon": 164.41977075072975,
        "alt_km": 703.824483984502,
        "timestamp": "2025-12-23T07:45:09.053640+00:00",
        "meta_object_name": "SENTINEL-1A",
        "meta_object_id": "2014-016A",
        "meta_epoch": "2025-12-23T00:02:40.170048",
        "meta_mean_motion": 14.592005,
        "meta_eccentricity": 0.0001261,
        "meta_inclination": 98.1796,
        "meta_ra_of_asc_node": 2.0912,
        "meta_arg_of_pericenter": 84.552,
        "meta_mean_anomaly": 275.5824,
        "meta_ephemeris_type": 0,
        "meta_classification_type": "U",
        "meta_norad_cat_id": 39634,
        "meta_element_set_no": 999,
        "meta_rev_at_epoch": 62432,
        "meta_bstar": -3.4273801e-05,
        "meta_mean_motion_dot": -2.07e-06,
        "meta_mean_motion_ddot": 0,
        "tle_line1": "1 39634U 14016A   25357.00185382 -.00000207  00000+0 -34274-4 0  9990",
        "tle_line2": "2 39634  98.1796   2.0912 0001261  84.5520 275.5824 14.59200500624321"
      },
      "geometry": {
        "type": "Point",
        "coordinates": [
          164.41977075072975,
          -65.02576506118645
        ]
      }
    },
    {
      "type": "Feature",
      "properties": {
        "norad_id": 39731,
        "name": "KAZEOSAT 1",
        "group": "resource",
        "lat": -69.37344038785437,
        "lon": 91.93726102989602,
        "alt_km": 759.7855057547049,
        "timestamp": "2025-12-23T07:45:09.053650+00:00",
        "meta_object_name": "KAZEOSAT 1",
        "meta_object_id": "2014-024A",
        "meta_epoch": "2025-12-22T23:45:19.596096",
        "meta_mean_motion": 14.42067413,
        "meta_eccentricity": 0.00012212,
        "meta_inclination": 98.3425,
        "meta_ra_of_asc_node": 68.6671,
        "meta_arg_of_pericenter": 97.3807,
        "meta_mean_anomaly": 262.7522,
        "meta_ephemeris_type": 0,
        "meta_classification_type": "U",
        "meta_norad_cat_id": 39731,
        "meta_element_set_no": 999,
        "meta_rev_at_epoch": 61316,
        "meta_bstar": 4.3595378e-05,
        "meta_mean_motion_dot": 1e-06,
        "meta_mean_motion_ddot": 0,
        "tle_line1": "1 39731U 14024A   25356.98981014  .00000100  00000+0  43595-4 0  9995",
        "tle_line2": "2 39731  98.3425  68.6671 0001221  97.3807 262.7522 14.42067413613165"
      },
      "geometry": {
        "type": "Point",
        "coordinates": [
          91.93726102989602,
          -69.37344038785437
        ]
      }
    },
    {
      "type": "Feature",
      "properties": {
        "norad_id": 39766,
        "name": "ALOS-2",
        "group": "resource",
        "lat": 23.806357918394113,
        "lon": -84.45869263047868,
        "alt_km": 629.9572741140228,
        "timestamp": "2025-12-23T07:45:09.053660+00:00",
        "meta_object_name": "ALOS-2",
        "meta_object_id": "2014-029A",
        "meta_epoch": "2025-12-22T19:41:17.710368",
        "meta_mean_motion": 14.79476878,
        "meta_eccentricity": 0.00014161,
        "meta_inclination": 97.923,
        "meta_ra_of_asc_node": 91.5233,
        "meta_arg_of_pericenter": 97.8876,
        "meta_mean_anomaly": 262.2496,
        "meta_ephemeris_type": 0,
        "meta_classification_type": "U",
        "meta_norad_cat_id": 39766,
        "meta_element_set_no": 999,
        "meta_rev_at_epoch": 62550,
        "meta_bstar": 0.00022009093,
        "meta_mean_motion_dot": 1.593e-05,
        "meta_mean_motion_ddot": 0,
        "tle_line1": "1 39766U 14029A   25356.82034387  .00001593  00000+0  22009-3 0  9996",
        "tle_line2": "2 39766  97.9230  91.5233 0001416  97.8876 262.2496 14.79476878625503"
      },
      "geometry": {
        "type": "Point",
        "coordinates": [
          -84.45869263047868,
          23.806357918394113
        ]
      }
    }
  ]
}